#dP2025  2  2  0  0  0.00000000      96 __u+U IGS20 FIT  IAC
## 2352      0.00000000   900.00000000 60708 0.0000000000000
+   53   G01G02G03G04G05G06G07G08G09G10G11G12G13G14G15G16G17
+        G18G19G20G21G22G23G24G25G26G27G28G29G30G31G32R01R02
+        R03R04R05R06R07R08R09R11R12R14R15R16R17R18R20R21R22
+        R24R26  0  0  0  0  0  0  0  0  0  0  0  0  0  0  0
+          0  0  0  0  0  0  0  0  0  0  0  0  0  0  0  0  0
++         6  6  6  4  5  5  4  5  6  6  5  5  5  4  5  4  5
++         4  4  5  6  5  5  5  5  4  5  5  4  6  4  6  7  7
++         5  5  6  0  5  6  5  5  6  7  6  6  7  5  7  7  6
++         5  0  0  0  0  0  0  0  0  0  0  0  0  0  0  0  0
++         0  0  0  0  0  0  0  0  0  0  0  0  0  0  0  0  0
%c M  cc GPS ccc cccc cccc cccc cccc ccccc ccccc ccccc ccccc
%c cc cc ccc ccc cccc cccc cccc cccc ccccc ccccc ccccc ccccc
%f  0.0000000  0.000000000  0.00000000000  0.000000000000000
%f  0.0000000  0.000000000  0.00000000000  0.000000000000000
%i    0    0    0    0      0      0      0      0         0
%i    0    0    0    0      0      0      0      0         0
/* INFORMATION & ANALYSIS CENTER (IAC)      ULTRA-RAPID DATA
/* S/V CLOCKS ARE ALIGNED TO GNSS TIME                      
/* G:C1WC2W R:C1PC2P E:C1XC5X C:C2IC6I J:C1CC2S             
/* PCV:IGS20_2350 OL/AL:FES2004  NONE     YN ORB:CoN CLK:CoN
*  2025 02 02 18  0  0.00000000
PG01  15196.798676 -21427.745744  -3880.575752     94.754675
PG02  14135.225515 -22220.639891    402.131480   -252.688320
PG03  10779.989856 -12546.886969 -20915.439249    657.171039
PG04   3152.090360 -21302.409341 -15423.194329    521.371334
PG05 -23061.809620   6209.814623  11518.946654   -200.831979
PG06 -14544.994807  -4525.820477 -21705.537125   -161.298490
PG07   1548.958202 -21273.148965  16083.556758    -13.476464
PG08  10703.312205 -12188.229916  20814.426082    473.017045
PG09  -5355.399028 -24791.623806  -7859.630024    552.528405
PG10  21618.693145  10547.482911  11860.199310   -302.553947
PG11 -19892.034368   6494.809295 -16281.896224   -749.339156
PG12 -13835.382986  11491.880117 -19823.192008   -568.009942
PG13 -14668.834360   2491.307309  21775.503519    695.338100
PG14 -18644.980704 -12901.014525  14077.408522    591.471080
PG15  -8568.110843  14170.121069  20219.761503    258.902167
PG16  25840.926533    572.825164   6697.164110    -62.608833
PG17 -12824.411720 -22034.139661  -6640.086094    444.884058
PG18   -555.944105  19981.945092  17404.750747   -655.171821
PG19 -15968.641293 -14793.531707 -15651.303577    593.494293
PG20 -26454.781165   1113.716728   -782.634207    366.593278
PG21  17025.455913 -18414.563699   7089.423501    101.876252
PG22 -23081.108980 -10454.064352   7789.721652    -95.294905
PG23   8458.894019  14595.739703  20619.895979    415.997149
PG24 -14344.996743  22019.740665   1332.696831   -456.869350
PG25    507.095334  15737.265508 -21766.705336    495.702476
PG26  26131.647832   4053.193632  -4359.591614    -74.154218
PG27  16187.200995    466.865634  20814.830187    -32.144674
PG28  13926.414119   6482.026362 -21681.422757   -550.520042
PG29   3014.969679  25183.858481  -7714.144844   -541.423371
PG30  -8909.425805 -13878.778187  20933.837715   -225.171876
PG31  18742.523441  -2001.619438 -19098.108481   -216.443782
PG32  16197.514878  18020.453673 -10878.630614   -529.644438
PR01 -19019.334811  -9637.250539  14016.964157    113.377264
PR02 -10398.061930   4383.200077  22919.817580    -37.831463
PR03   4090.786436  17010.204721  18641.747562    116.104575
PR04  15476.567604  19805.419176   4433.345441    275.411179
PR05  18790.966590  12221.053759 -12182.303650    144.754523
PR06      0.000000      0.000000      0.000000 999999.999999
PR07  -4295.752135 -17078.009766 -18384.678958    100.045844
PR08 -15836.007193 -19557.150874  -3985.807772     -6.246243
PR09  22263.690542  -9939.698045   7365.234700    235.688802
PR11  -7976.070803  -9033.022839  22489.460920     -5.748009
PR12 -23253.629196    474.021611  10476.041383     50.330678
PR14  -8971.280349  12486.108809 -20355.179551     27.683861
PR15   9827.746448   8493.724165 -21940.374084     71.580263
PR16  23169.733754   -530.259249 -10614.745260     32.993258
PR17  -6360.073574  24569.245638   2383.675891    162.840598
PR18   2084.682920  18890.537605  17061.974154    185.055740
PR20  12936.886245 -15675.444871  15395.690052   -125.299238
PR21   7255.832289 -24446.382124   -982.250816   -173.416425
PR22  -2715.926253 -18083.344336 -17748.283202    -58.883564
PR24 -12365.511736  16645.737801 -14828.047061    -90.793979
PR26      0.000000      0.000000      0.000000 999999.999999
*  2025 02 02 18 15  0.00000000
PG01  15574.915561 -21482.707887  -1044.313471     94.778190
PG02  14285.901578 -21945.207643   3283.485149   -252.679958
PG03  13053.034227 -12262.809298 -19736.576308    657.176833
PG04   4041.344020 -19636.167259 -17321.933598    521.376371
PG05 -24245.697169   5975.060742   8974.753453   -200.832792
PG06 -13085.868732  -6571.504897 -22095.226639   -161.321500
PG07   2674.471414 -22507.081048  14017.168179    -13.476891
PG08  11893.413632 -10044.200731  21344.883451    473.023445
PG09  -4681.357618 -23967.834564 -10453.565988    552.541166
PG10  20172.742611  10536.172041  14202.307996   -302.567818
PG11 -18812.026802   4837.567701 -18047.452677   -749.337517
PG12 -15926.694812  11045.172877 -18434.545240   -568.011738
PG13 -15382.286206     76.326100  21447.966160    695.339217
PG14 -16920.070133 -12919.906639  16079.893703    591.477260
PG15 -10024.537817  12176.867036  20836.486868    258.905623
PG16  26436.891215    901.419737   3955.768382    -62.600460
PG17 -12825.811291 -22732.908782  -3848.148972    444.867470
PG18  -1786.629900  21414.306107  15491.122069   -655.170131
PG19 -16360.377414 -16385.546680 -13535.615132    593.498101
PG20 -26219.569377    814.382571  -3623.110891    366.593041
PG21  16827.824372 -17434.048612   9780.563666    101.876183
PG22 -22051.003845 -10526.672523  10397.634918    -95.296639
PG23   6070.760636  14501.891367  21490.499681    416.003761
PG24 -14482.638735  21521.680806   4134.733451   -456.865248
PG25  -1905.938385  15572.675840 -21784.657422    495.701879
PG26  25506.059837   4354.370863  -7028.612673    -74.168877
PG27  17157.661161   2647.334789  19906.817484    -32.144104
PG28  12576.073885   8566.605758 -21782.829403   -550.528062
PG29   2441.796296  24300.603030 -10333.564766   -541.420549
PG30  -7498.504252 -15737.714623  20126.440805   -225.164081
PG31  17522.735695   -170.410115 -20305.538109   -216.443015
PG32  16493.472679  19123.963269  -8320.907473   -529.637658
PR01 -20248.908617 -10611.043096  11334.585063    113.378735
PR02 -12371.993744   2432.203702  22211.329087    -37.830927
PR03   2457.840526  15256.178278  20366.206330    116.105171
PR04  15089.344518  19154.928072   7551.565772    275.412278
PR05  19839.235063  13055.899702  -9324.550835    144.754737
PR06      0.000000      0.000000      0.000000 999999.999999
PR07  -2664.183606 -15328.640375 -20150.512711    100.046491
PR08 -15456.994745 -18953.143408  -7115.463292     -6.246401
PR09  22924.626476 -10231.256063   4281.449546    235.690801
PR11  -5273.006778  -9776.293237  22968.357476     -5.751010
PR12 -21817.156394    191.348886  13220.911936     50.330718
PR14 -11268.321082  13212.265801 -18688.557907     27.684307
PR15   7165.620247   9202.812476 -22673.238976     71.579573
PR16  21709.183564   -253.263474 -13360.130960     32.993299
PR17  -6207.077168  24707.463780   -847.084488    162.843191
PR18   1693.950469  20814.041091  14706.251693    185.057711
PR20  12168.124130 -13776.368763  17675.769122   -125.299700
PR21   7043.079666 -24425.116185   2250.636341   -173.419270
PR22  -2206.597360 -20081.606105 -15534.951116    -58.885076
PR24 -11753.891390  14763.109655 -17137.311257    -90.795595
PR26  11193.659672  -4356.804976 -22511.413033 999999.999999
EOF
